ONEWEB-0208             
1 48243U 21031AK  24249.03796153 -.00000235  00000+0 -66925-3 0  9995
2 48243  87.8933  59.0017 0001860  95.3921 264.7421 13.14502928162894
ONEWEB-0200             
1 48244U 21031AL  24248.54478732  .00000287  00000+0  74022-3 0  9993
2 48244  87.8931  59.0966 0001895  96.4707 263.6638 13.14501094162765
ONEWEB-0217             
1 48245U 21031AM  24249.01735124  .00000107  00000+0  25512-3 0  9999
2 48245  87.8933  58.9867 0001938  99.5356 260.5993 13.14499896162775
ONEWEB-0211             
1 48767U 21045A   24248.95697429 -.00000107  00000+0 -31901-3 0  9991
2 48767  87.9074  28.5637 0001651 100.4563 259.6754 13.15550056160053
ONEWEB-0223             
1 48768U 21045B   24248.75100110  .00000139  00000+0  33596-3 0  9991
2 48768  87.9078  28.6145 0001512 118.6398 241.4885 13.15550111158880
ONEWEB-0230             
1 48769U 21045C   24248.95065632 -.00000121  00000+0 -35424-3 0  9998
2 48769  87.9078  28.6446 0001579  95.6117 264.5193 13.15547657160287
ONEWEB-0237             
1 48770U 21045D   24248.40714712  .00000088  00000+0  19878-3 0  9995
2 48770  87.9083  28.6887 0001574 109.8969 250.2331 13.15546704158827
ONEWEB-0235             
1 48771U 21045E   24248.91419678  .00000176  00000+0  43475-3 0  9993
2 48771  87.9074  28.5916 0001390 122.6070 237.5195 13.15549808160009
ONEWEB-0242             
1 48772U 21045F   24248.75574269  .00000100  00000+0  23233-3 0  9991
2 48772  87.9071  28.6107 0001429  96.7552 263.3741 13.15549624158905
ONEWEB-0241             
1 48773U 21045G   24248.89519886 -.00000057  00000+0 -18548-3 0  9997
2 48773  87.9083  28.6373 0001863 110.6041 249.5289 13.15549855159961
ONEWEB-0243             
1 48774U 21045H   24248.85082685  .00000131  00000+0  31264-3 0  9997
2 48774  87.9086  28.6061 0001358 115.4425 244.6846 13.15548815158854
ONEWEB-0222             
1 48775U 21045J   24248.75812525  .00000032  00000+0  50313-4 0  9998
2 48775  87.9074  28.6195 0001707 106.7015 253.4303 13.15548945158889
ONEWEB-0244             
1 48776U 21045K   24248.40398442  .00000128  00000+0  30544-3 0  9997
2 48776  87.9072  28.6714 0001517  97.4219 262.7084 13.15548289159405
ONEWEB-0247             
1 48777U 21045L   24248.47687276  .00000084  00000+0  19012-3 0  9999
2 48777  87.9079  28.7037 0001203 135.9817 224.1410 13.15546136158858
ONEWEB-0245             
1 48778U 21045M   24248.85239892  .00000145  00000+0  35123-3 0  9998
2 48778  87.9074  28.6140 0001847 103.3045 256.8291 13.15550209158871
ONEWEB-0229             
1 48779U 21045N   24248.84763904  .00000195  00000+0  48402-3 0  9993
2 48779  87.9077  28.6096 0001545  99.2753 260.8552 13.15550923158901
ONEWEB-0228             
1 48780U 21045P   24248.95619880 -.00000110  00000+0 -32623-3 0  9997
2 48780  87.9071  28.5690 0001645 100.1040 260.0276 13.15548471159965
ONEWEB-0232             
1 48781U 21045Q   24248.93163505  .00000103  00000+0  23891-3 0  9991
2 48781  87.9069  28.5841 0001671  99.1044 261.0275 13.15549371160277
ONEWEB-0231             
1 48782U 21045R   24248.45310008  .00000197  00000+0  48894-3 0  9994
2 48782  87.9080  28.7210 0001575 105.8161 254.3143 13.15549878158785
ONEWEB-0234             
1 48783U 21045S   24248.39685162  .00000187  00000+0  46221-3 0  9995
2 48783  87.9074  28.6851 0003049  92.1242 268.0238 13.15550804158918
ONEWEB-0238             
1 48784U 21045T   24248.95935091 -.00000043  00000+0 -14803-3 0  9991
2 48784  87.9073  28.5906 0001827  95.0904 265.0435 13.15550380160016
ONEWEB-0240             
1 48785U 21045U   24248.89280261 -.00000066  00000+0 -20992-3 0  9998
2 48785  87.9073  28.5709 0001851 110.5766 249.5563 13.15550191160024
ONEWEB-0246             
1 48786U 21045V   24248.88723957 -.00000662  00000+0 -17937-2 0  9998
2 48786  87.9073  28.5776 0001497  99.3650 260.7650 13.15548136159892
ONEWEB-0210             
1 48787U 21045W   24248.40555564  .00000097  00000+0  22372-3 0  9994
2 48787  87.9074  28.6775 0001021 121.3621 238.7609 13.15550933158752
ONEWEB-0214             
1 48788U 21045X   24248.94746600 -.00000120  00000+0 -35265-3 0  9991
2 48788  87.9074  28.5586 0001093 102.1336 257.9917 13.15549952159914
ONEWEB-0221             
1 48789U 21045Y   24248.95379294 -.00000128  00000+0 -37524-3 0  9992
2 48789  87.9077  28.5773 0001718 106.2474 253.8846 13.15551054160024
ONEWEB-0213             
1 48790U 21045Z   24248.41031018  .00000067  00000+0  14279-3 0  9996
2 48790  87.9075  28.6976 0001578 110.1976 249.9324 13.15550652158875
ONEWEB-0212             
1 48791U 21045AA  24248.91974519  .00000158  00000+0  38677-3 0  9993
2 48791  87.9078  28.5810 0001776  96.3609 263.7724 13.15549536158937
ONEWEB-0227             
1 48792U 21045AB  24248.91894762  .00000208  00000+0  51925-3 0  9992
2 48792  87.9076  28.5960 0001693 102.4241 257.7079 13.15549914160019
ONEWEB-0226             
1 48793U 21045AC  24248.76049775  .00000109  00000+0  25644-3 0  9991
2 48793  87.9075  28.6334 0001327 112.0041 248.1230 13.15549093158832
ONEWEB-0224             
1 48794U 21045AD  24248.41984158 -.00000051  00000+0 -16849-3 0  9992
2 48794  87.9079  28.7248 0002626 115.3046 244.8357 13.15550215158714
ONEWEB-0233             
1 48795U 21045AE  24248.95776786 -.00000126  00000+0 -36812-3 0  9993
2 48795  87.9077  28.6318 0001761 106.9111 253.2213 13.15549449159913
ONEWEB-0190             
1 48796U 21045AF  24248.94429170 -.00000022  00000+0 -91722-4 0  9992
2 48796  87.9080  28.5950 0001487 133.0432 227.0823 13.15550366159995
ONEWEB-0236             
1 48797U 21045AG  24248.96172568 -.00000047  00000+0 -15825-3 0  9997
2 48797  87.9081  28.5883 0001772 101.7298 258.4031 13.15550276159888
ONEWEB-0248             
1 48798U 21045AH  24248.89834873  .00000016  00000+0  74753-5 0  9995
2 48798  87.9075  28.5847 0002026 120.0596 240.0736 13.15546707160032
ONEWEB-0225             
1 48799U 21045AJ  24248.92053527  .00000163  00000+0  39807-3 0  9991
2 48799  87.9079  28.5962 0001618 113.4333 246.6968 13.15549672158924
ONEWEB-0215             
1 48800U 21045AK  24248.89042946 -.00000063  00000+0 -20213-3 0  9995
2 48800  87.9072  28.5715 0001911 124.9284 235.2026 13.15546633159917
ONEWEB-0216             
1 48801U 21045AL  24248.89992877  .00000008  00000+0 -12873-4 0  9995
2 48801  87.9074  28.6117 0001424  96.4007 263.7286 13.15550451159920
ONEWEB-0239             
1 48802U 21045AM  24248.90468621  .00000123  00000+0  29400-3 0  9993
2 48802  87.9082  28.5934 0002081 124.6477 235.4850 13.15549817159984
ONEWEB-0249             
1 48967U 21060A   24248.74610857  .00000092  00000+0  20728-3 0  9993
2 48967  87.9174 358.2984 0001807  99.6912 260.4423 13.16596907154023
ONEWEB-0250             
1 48968U 21060B   24248.73946955  .00000064  00000+0  11617-3 0  9990
2 48968  87.9174 358.1712 0002058 111.7753 248.3602 13.25521789154031
ONEWEB-0252             
1 48970U 21060D   24248.85376966 -.00000338  00000+0 -91764-3 0  9992
2 48970  87.9175 358.2705 0001580  99.5556 260.5753 13.16592955155375
ONEWEB-0253             
1 48971U 21060E   24248.84268258  .00000132  00000+0  31252-3 0  9992
2 48971  87.9173 358.2830 0001644 110.0262 250.1046 13.16596645154017
ONEWEB-0254             
1 48972U 21060F   24248.85218285  .00000042  00000+0  76349-4 0  9996
2 48972  87.9175 358.2600 0001688 110.4611 249.6701 13.16596665154018
ONEWEB-0255             
1 48973U 21060G   24248.73820420  .00000042  00000+0  74997-4 0  9991
2 48973  87.9174 358.3168 0001882 112.5599 247.5731 13.16592242154075
ONEWEB-0256             
1 48974U 21060H   24248.84032489  .00000136  00000+0  32100-3 0  9997
2 48974  87.9177 358.3026 0001664  94.2776 265.8545 13.16591847154057
ONEWEB-0257             
1 48975U 21060J   24248.72077432 -.00000334  00000+0 -90825-3 0  9992
2 48975  87.9175 358.2946 0001590 101.9425 258.1884 13.16592949153998
ONEWEB-0258             
1 48976U 21060K   24248.72234752 -.00000607  00000+0 -16222-2 0  9994
2 48976  87.9173 358.3224 0001815 101.2942 258.8393 13.16593692154005
ONEWEB-0259             
1 48977U 21060L   24248.71602670 -.00000031  00000+0 -11500-3 0  9998
2 48977  87.9173 358.3082 0001938 107.1927 252.9417 13.16595053154030
ONEWEB-0260             
1 48978U 21060M   24248.70732668 -.00000016  00000+0 -76319-4 0  9992
2 48978  87.9176 358.3391 0001235  91.1034 269.0238 13.16593012154019
ONEWEB-0261             
1 48979U 21060N   24248.75244320  .00000137  00000+0  32599-3 0  9994
2 48979  87.9178 358.3260 0001873 121.3654 238.7661 13.16596289154077
ONEWEB-0262             
1 48980U 21060P   24248.73344435 -.00000013  00000+0 -67948-4 0  9994
2 48980  87.9175 358.2915 0002038 112.6745 247.4602 13.16596063154038
ONEWEB-0263             
1 48981U 21060Q   24248.76510249  .00000107  00000+0  24755-3 0  9996
2 48981  87.9177 358.3044 0001726 116.8068 243.3240 13.16597674154001
ONEWEB-0264             
1 48982U 21060R   24248.72631286 -.00000504  00000+0 -13512-2 0  9999
2 48982  87.9176 358.3224 0001708 102.1309 258.0013 13.16594180154007
ONEWEB-0266             
1 48984U 21060T   24248.82368991 -.00001015  00000+0 -26877-2 0  9998
2 48984  87.9174 358.2788 0002732  92.6111 267.5332 13.16601943155302
ONEWEB-0267             
1 48985U 21060U   24248.75877406  .00000103  00000+0  23459-3 0  9996
2 48985  87.9175 358.2935 0001516 111.0411 249.0882 13.16597355154008
ONEWEB-0268             
1 48986U 21060V   24248.72709746 -.00000219  00000+0 -60763-3 0  9994
2 48986  87.9177 358.3057 0001574  97.3751 262.7559 13.16596036154260
ONEWEB-0269             
1 48987U 21060W   24248.70812270 -.00000054  00000+0 -17426-3 0  9995
2 48987  87.9177 358.3374 0001783  97.8040 262.3294 13.16594705154039
ONEWEB-0270             
1 48988U 21060X   24248.72552569 -.00000266  00000+0 -72941-3 0  9998
2 48988  87.9175 358.3133 0001799 118.1115 242.0198 13.16594800154076
